INTELSAT 31 (IS-31)     
1 41581U 16035A   17234.34498952 -.00000182  00000-0  00000+0 0  9996
2 41581   0.0269 223.1335 0001192  17.2145 119.6247  1.00272073  4400
BEIDOU G7               
1 41586U 16037A   17234.57283636 -.00000279  00000-0  00000+0 0  9996
2 41586   1.1376 321.1983 0002161 266.9987  93.4713  1.00277244  4501
ABS-2A (MONGOLSAT-1)    
1 41588U 16038A   17234.87199395 -.00000114  00000-0  00000+0 0  9998
2 41588   0.0133 106.7154 0002020 308.7678 304.5208  1.00266650  4420
EUTELSAT 117 WEST B     
1 41589U 16038B   17234.40582467 -.00000043  00000-0  00000-0 0  9996
2 41589   0.0092 219.2951 0000607 243.7576 256.9387  1.00270875  4404
BRISAT                  
1 41591U 16039A   17234.66213188 -.00000228  00000-0  00000+0 0  9993
2 41591   0.0202 124.3203 0001917  25.4891 210.2016  1.00268836  4356
ECHOSTAR 18             
1 41592U 16039B   17234.25164599 -.00000313  00000-0  00000-0 0  9996
2 41592   0.0497 274.2822 0001882 259.7741 185.9305  1.00271583  4343
TIANTONG-1 1            
1 41725U 16048A   17234.80797100 -.00000345  00000-0  00000-0 0  9990
2 41725   4.4946 325.3930 0001361 300.8699  97.2707  1.00268113  3983
JCSAT-16                
1 41729U 16050A   17233.63280251 -.00000124  00000-0  00000+0 0  9995
2 41729   0.0049 140.5877 0001547  15.6553 203.7487  1.00270863  3777
INTELSAT 36 (IS-36)     
1 41747U 16053A   17232.89468455 -.00000056  00000-0  00000+0 0  9993
2 41747   0.0096  73.0242 0002337 257.2670  29.6803  1.00272431  3665
INTELSAT 33E (IS-33E)   
1 41748U 16053B   17234.91283767  .00000018  00000-0  00000+0 0  9997
2 41748   0.0217  15.0686 0003001 157.2092 187.7119  1.00274202  3939
INSAT-3DR               
1 41752U 16054A   17234.87381790 -.00000108  00000-0  00000+0 0  9994
2 41752   0.0639 271.7426 0006874 354.9444  93.2195  1.00271580  3529
GSAT-18                 
1 41793U 16060A   17233.87702360 -.00000109  00000-0  00000-0 0  9997
2 41793   0.0495 273.8541 0007332 177.9005 268.3136  1.00272226  3248
SKY MUSTER 2            
1 41794U 16060B   17234.67787845 -.00000275  00000-0  00000+0 0  9991
2 41794   0.0166 200.0267 0001366 306.7354 213.2312  1.00271888  3283
HIMAWARI-9              
1 41836U 16064A   17234.68908714 -.00000307  00000-0  00000-0 0  9990
2 41836   0.0118 262.7518 0000719 308.6776 148.5662  1.00267653  2890
SHIJIAN-17 (SJ-17)      
1 41838U 16065A   17234.88828819 -.00000385  00000-0  00000+0 0  9997
2 41838   0.1066 107.2715 0000477 181.5591 127.1936  1.00272117  2945
GOES 16                 
1 41866U 16071A   17233.33160286 -.00000215  00000-0  00000-0 0  9994
2 41866   0.0035 109.8756 0000365 138.9205 111.2001  1.00269272  2808
TIANLIAN 1-04           
1 41869U 16072A   17234.16438096 -.00000139  00000-0  00000-0 0  9992
2 41869   2.5225 289.2812 0006348 176.3762   1.1884  1.00272916  3015
FENGYUN 4A              
1 41882U 16077A   17235.79550161 -.00000360  00000-0  00000+0 0  9995
2 41882   0.1361 104.6008 0007171 337.9391 280.8448  1.00271683  2707
ECHOSTAR 19             
1 41893U 16079A   17234.35071372 -.00000170  00000-0  00000+0 0  9991
2 41893   0.0101 129.0180 0001145  19.1156 211.8579  1.00272255  2441
STAR ONE D1             
1 41904U 16082B   17234.31439921 -.00000242  00000-0  00000-0 0  9993
2 41904   0.0373  99.2604 0002238  65.5421 195.1890  1.00273629  2477
TJS-2                   
1 41911U 17001A   17234.89104177 -.00000374  00000-0  00000-0 0  9994
2 41911   0.5384 278.8027 0001428   2.8021 118.0246  1.00273912  2447
HISPASAT 36W-1          
1 41942U 17006A   17235.17859270 -.00000275  00000-0  00000+0 0  9995
2 41942   0.0021 319.3527 0001079 194.7899 205.8481  1.00271649  2245
TELKOM 3S               
1 41944U 17007A   17234.75211753 -.00000394  00000-0  00000-0 0  9992
2 41944   0.0062 137.2022 0002033  13.6471 209.1470  1.00272253  1847
INTELSAT 32E (IS-32E)   
1 41945U 17007B   17235.19861233 -.00000299  00000-0  00000+0 0  9999
2 41945   0.0139 110.5385 0000036 359.4888 249.9584  1.00270415  1962
ECHOSTAR 23             
1 42070U 17014A   17234.20617432 -.00000305  00000-0  00000-0 0  9997
2 42070   0.0249 119.4505 0002103  27.1061 213.4566  1.00268780  1648
SES-10                  
1 42432U 17017A   17234.26706383 -.00000304  00000-0  00000+0 0  9990
2 42432   0.0113  70.4473 0002230  92.0113 197.5338  1.00271615  1482
CHINASAT 16 (SJ-13)     
1 42662U 17018A   17235.02376122 -.00000383  00000-0  00000+0 0  9992
2 42662   0.0468  98.9144 0006267 122.4346 229.2132  1.00272538  1457
KOREASAT 7              
1 42691U 17023A   17234.75796492 -.00000393  00000-0  00000+0 0  9996
2 42691   0.0225  84.3491 0001295  51.1830 224.4631  1.00272918  1156
SGDC                    
1 42692U 17023B   17234.28903042 -.00000281  00000-0  00000+0 0  9992
2 42692   0.0323  65.1564 0001936 129.2893 165.5335  1.00273800  1159
GSAT-9                  
1 42695U 17024A   17233.81208998 -.00000319  00000-0  00000-0 0  9995
2 42695   0.0733 274.0037 0002702 224.3495 221.6518  1.00275288  1137
INMARSAT 5-F4           
1 42698U 17025A   17234.84765816 -.00000200  00000-0  00000+0 0  9998
2 42698   0.0543 276.8837 0001357 354.3714  88.7142  1.00270691   991
HELLAS-SAT 3            
1 42814U 17040A   17234.97114155  .00000122  00000-0  00000+0 0  9995
2 42814   0.0322  66.6356 0002353  23.0749 270.3015  1.00272378   602
GSAT-17                 
1 42815U 17040B   17234.81982813 -.00000289  00000-0  00000+0 0  9998
2 42815   0.0101 159.7324 0005619  92.2241 107.9674  1.00272578   585
INTELSAT 35E            
1 42818U 17041A   17235.04976487 -.00000269  00000-0  00000+0 0  9996
2 42818   0.0501 279.9832 0002148 226.7960 168.1429  1.00271759   540
